NORAD_CAT_ID,OBJECT_NAME,OBJECT_TYPE,EPOCH,MEAN_MOTION,ECCENTRICITY,INCLINATION,RA_OF_ASC_NODE,ARG_OF_PERICENTER,MEAN_ANOMALY,BSTAR,MEAN_MOTION_DOT,MEAN_MOTION_DDOT,TLE_LINE0,TLE_LINE1,TLE_LINE2,SEMIMAJOR_AXIS,PERIOD,APOGEE,PERIGEE,DECAYED
52576.0,STARLINK-3932,PAYLOAD,2023-04-11 12:36:59,15.08849759,0.0001189,53.2146,211.8479,112.7106,247.4012,0.00023489,3.453e-05,0.0,0 STARLINK-3932,1 52576U 22051AS  23101.52568705  .00003453  00000-0  23489-3 0  9994,2 52576  53.2146 211.8479 0001189 112.7106 247.4012 15.08849759 51155,6917.851,95.437,540.538,538.893,0.0
52576.0,STARLINK-3932,PAYLOAD,2023-04-11 17:23:08,15.08854397,0.0001269,53.215,210.9537,124.6049,235.5062,0.00026963,4.008e-05,0.0,0 STARLINK-3932,1 52576U 22051AS  23101.72440284  .00004008  00000-0  26963-3 0  9994,2 52576  53.2150 210.9537 0001269 124.6049 235.5062 15.08854397 51115,6917.836,95.437,540.579,538.824,0.0
52576.0,STARLINK-3932,PAYLOAD,2023-04-12 14:03:09,15.08842453,9.49e-05,53.2142,207.0925,101.8662,258.2436,-2.6157e-06,-3.29e-06,0.0,0 STARLINK-3932,1 52576U 22051AS  23102.58552651 -.00000329  00000-0 -26157-5 0  9992,2 52576  53.2142 207.0925 0000949 101.8662 258.2436 15.08842453 51247,6917.873,95.437,540.394,539.081,0.0
52576.0,STARLINK-3932,PAYLOAD,2023-04-12 23:35:28,15.08844311,7.98e-05,53.2148,205.3085,98.0871,262.0211,0.00011616,1.562e-05,0.0,0 STARLINK-3932,1 52576U 22051AS  23102.98296537  .00001562  00000-0  11616-3 0  9994,2 52576  53.2148 205.3085 0000798  98.0871 262.0211 15.08844311 51308,6917.867,95.437,540.284,539.18,0.0
52576.0,STARLINK-3932,PAYLOAD,2023-04-13 13:53:56,15.08834763,0.0001196,53.2165,202.6357,108.8819,251.2303,1.9626e-05,2.4e-07,0.0,0 STARLINK-3932,1 52576U 22051AS  23103.57913134  .00000024  00000-0  19626-4 0  9991,2 52576  53.2165 202.6357 0001196 108.8819 251.2303 15.08834763 51463,6917.896,95.438,540.589,538.934,0.0
52576.0,STARLINK-3932,PAYLOAD,2023-04-14 12:09:21,15.08838271,0.0001151,53.2172,198.4687,97.0027,263.1096,0.00010951,1.455e-05,0.0,0 STARLINK-3932,1 52576U 22051AS  23104.50649444  .00001455  00000-0  10951-3 0  9995,2 52576  53.2172 198.4687 0001151  97.0027 263.1096 15.08838271 51537,6917.886,95.438,540.547,538.954,0.0
52576.0,STARLINK-3932,PAYLOAD,2023-04-15 13:35:31,15.08850593,0.000121,53.2163,193.712,87.7957,272.3174,0.00031544,4.737e-05,0.0,0 STARLINK-3932,1 52576U 22051AS  23105.56633127  .00004737  00000-0  31544-3 0  9990,2 52576  53.2163 193.7120 0001210  87.7957 272.3174 15.08850593 51698,6917.848,95.437,540.55,538.876,0.0
52576.0,STARLINK-3932,PAYLOAD,2023-04-15 23:07:50,15.08841429,0.0001421,53.2165,191.9284,61.5059,298.6076,0.00014927,2.089e-05,0.0,0 STARLINK-3932,1 52576U 22051AS  23105.96377577  .00002089  00000-0  14927-3 0  9992,2 52576  53.2165 191.9284 0001421  61.5059 298.6076 15.08841429 51823,6917.876,95.437,540.724,538.758,0.0
52576.0,STARLINK-3932,PAYLOAD,2023-04-16 11:50:55,15.08834053,0.0001395,53.2159,189.5463,74.7459,285.3688,-2.9454e-05,-7.57e-06,0.0,0 STARLINK-3932,1 52576U 22051AS  23106.49370001 -.00000757  00000-0 -29454-4 0  9990,2 52576  53.2159 189.5463 0001395  74.7459 285.3688 15.08834053 51836,6917.899,95.438,540.729,538.799,0.0
52576.0,STARLINK-3932,PAYLOAD,2023-04-16 16:37:04,15.08847637,0.0001098,53.2158,188.6544,73.487,286.6242,0.00024313,3.584e-05,0.0,0 STARLINK-3932,1 52576U 22051AS  23106.69241460  .00003584  00000-0  24313-3 0  9995,2 52576  53.2158 188.6544 0001098  73.4870 286.6242 15.08847637 51863,6917.857,95.437,540.482,538.962,0.0
52576.0,STARLINK-3932,PAYLOAD,2023-04-17 05:20:10,15.08832527,0.0001485,53.2162,186.278,67.3127,292.8022,-1.6336e-05,-5.48e-06,0.0,0 STARLINK-3932,1 52576U 22051AS  23107.22234581 -.00000548  00000-0 -16336-4 0  9997,2 52576  53.2162 186.2780 0001485  67.3127 292.8022 15.08832527 52016,6917.903,95.438,540.796,538.741,0.0
52576.0,STARLINK-3932,PAYLOAD,2023-04-17 11:41:43,15.08836956,0.0001368,53.2154,185.0886,67.9721,292.1416,6.583e-05,7.6e-06,0.0,0 STARLINK-3932,1 52576U 22051AS  23107.48730392  .00000760  00000-0  65830-4 0  9993,2 52576  53.2154 185.0886 0001368  67.9721 292.1416 15.08836956 51982,6917.89,95.438,540.701,538.808,0.0
52576.0,STARLINK-3932,PAYLOAD,2023-04-17 16:27:51,15.08846053,0.0001324,53.2158,184.1939,74.6664,285.4475,0.00029587,4.425e-05,0.0,0 STARLINK-3932,1 52576U 22051AS  23107.68601842  .00004425  00000-0  29587-3 0  9992,2 52576  53.2158 184.1939 0001324  74.6664 285.4475 15.08846053 52089,6917.862,95.437,540.643,538.811,0.0
52576.0,STARLINK-3932,PAYLOAD,2023-04-18 09:57:06,15.08843146,0.0001361,53.2176,180.9261,94.2522,265.8625,0.00031974,4.805e-05,0.0,0 STARLINK-3932,1 52576U 22051AS  23108.41466276  .00004805  00000-0  31974-3 0  9999,2 52576  53.2176 180.9261 0001361  94.2522 265.8625 15.08843146 52127,6917.871,95.437,540.677,538.794,0.0
52576.0,STARLINK-3932,PAYLOAD,2023-04-18 14:43:15,15.08854496,0.0001387,53.2158,180.0325,71.9004,288.214,0.00037405,5.672e-05,0.0,0 STARLINK-3932,1 52576U 22051AS  23108.61337825  .00005672  00000-0  37405-3 0  9996,2 52576  53.2158 180.0325 0001387  71.9004 288.2140 15.08854496 52158,6917.836,95.437,540.661,538.742,0.0
52576.0,STARLINK-3932,PAYLOAD,2023-04-19 08:12:30,15.08846163,0.0001449,53.2162,176.7608,80.865,279.2506,0.00020858,3.034e-05,0.0,0 STARLINK-3932,1 52576U 22051AS  23109.34202189  .00003034  00000-0  20858-3 0  9995,2 52576  53.2162 176.7608 0001449  80.8650 279.2506 15.08846163 52264,6917.862,95.437,540.729,538.724,0.0
52576.0,STARLINK-3932,PAYLOAD,2023-04-19 20:55:35,15.08845816,0.0001408,53.2155,174.3827,84.8669,275.2484,0.00044893,6.865e-05,0.0,0 STARLINK-3932,1 52576U 22051AS  23109.87194153  .00006865  00000-0  44893-3 0  9994,2 52576  53.2155 174.3827 0001408  84.8669 275.2484 15.08845816 52346,6917.863,95.437,540.702,538.754,0.0
52576.0,STARLINK-3932,PAYLOAD,2023-04-20 12:49:27,15.08840485,0.0001604,53.2172,171.4109,97.2769,262.8405,8.5681e-05,1.076e-05,0.0,0 STARLINK-3932,1 52576U 22051AS  23110.53434294  .00001076  00000-0  85681-4 0  9992,2 52576  53.2172 171.4109 0001604  97.2769 262.8405 15.08840485 52446,6917.879,95.438,540.854,538.634,0.0
52576.0,STARLINK-3932,PAYLOAD,2023-04-20 20:46:23,15.08834939,0.0001322,53.2154,169.9213,94.6711,265.4432,-5.3639e-05,-1.141e-05,0.0,0 STARLINK-3932,1 52576U 22051AS  23110.86554450 -.00001141  00000-0 -53639-4 0  9998,2 52576  53.2154 169.9213 0001322  94.6711 265.4432 15.08834939 52490,6917.896,95.438,540.675,538.846,0.0
52576.0,STARLINK-3932,PAYLOAD,2023-04-21 03:07:55,15.08832719,0.000145,53.2159,168.7334,102.4337,257.6818,-7.2598e-06,-4.03e-06,0.0,0 STARLINK-3932,1 52576U 22051AS  23111.13050764 -.00000403  00000-0 -72598-5 0  9994,2 52576  53.2159 168.7334 0001450 102.4337 257.6818 15.08832719 52608,6917.903,95.438,540.771,538.765,0.0
52576.0,STARLINK-3932,PAYLOAD,2023-04-21 20:37:10,15.08840285,0.0001415,53.2146,165.4606,95.5581,264.5572,0.00014119,1.96e-05,0.0,0 STARLINK-3932,1 52576U 22051AS  23111.85914827  .00001960  00000-0  14119-3 0  9992,2 52576  53.2146 165.4606 0001415  95.5581 264.5572 15.08840285 52649,6917.88,95.438,540.723,538.766,0.0
52576.0,STARLINK-3932,PAYLOAD,2023-04-22 12:31:00,15.08856919,0.000135,53.2142,162.4859,102.1457,257.9687,0.00017085,2.433e-05,0.0,0 STARLINK-3932,1 52576U 22051AS  23112.52153890  .00002433  00000-0  17085-3 0  9993,2 52576  53.2142 162.4859 0001350 102.1457 257.9687 15.08856919 52810,6917.829,95.436,540.628,538.76,0.0
52576.0,STARLINK-3932,PAYLOAD,2023-04-23 12:21:48,15.0883822,0.0001017,53.2136,158.0245,132.6172,227.4906,4.0869e-05,3.63e-06,0.0,0 STARLINK-3932,1 52576U 22051AS  23113.51514773  .00000363  00000-0  40869-4 0  9991,2 52576  53.2136 158.0245 0001017 132.6172 227.4906 15.08838220 52894,6917.886,95.438,540.454,539.047,0.0
52576.0,STARLINK-3932,PAYLOAD,2023-04-24 02:40:16,15.088529,0.0001202,53.2145,155.3494,93.2645,266.8484,0.00033446,5.041e-05,0.0,0 STARLINK-3932,1 52576U 22051AS  23114.11130516  .00005041  00000-0  33446-3 0  9997,2 52576  53.2145 155.3494 0001202  93.2645 266.8484 15.08852900 53051,6917.841,95.437,540.537,538.874,0.0
52576.0,STARLINK-3932,PAYLOAD,2023-04-24 13:47:57,15.08900783,0.0001334,53.2143,153.2682,91.617,268.4974,0.0012749,0.00020094,0.0,0 STARLINK-3932,1 52576U 22051AS  23114.57496627  .00020094  00000-0  12749-2 0  9992,2 52576  53.2143 153.2682 0001334  91.6170 268.4974 15.08900783 53129,6917.695,95.434,540.482,538.637,0.0
52576.0,STARLINK-3932,PAYLOAD,2023-04-25 08:52:36,15.08824024,0.0001489,53.2145,149.6978,116.0308,244.0837,-0.00039167,-6.513e-05,0.0,0 STARLINK-3932,1 52576U 22051AS  23115.36986801 -.00006513  00000-0 -39167-3 0  9994,2 52576  53.2145 149.6978 0001489 116.0308 244.0837 15.08824024 53248,6917.929,95.439,540.824,538.764,0.0
52576.0,STARLINK-3932,PAYLOAD,2023-04-26 11:54:08,15.08874862,0.0001976,53.214,144.6429,133.9009,226.2147,-0.0015609,-0.00025068,0.0,0 STARLINK-3932,1 52576U 22051AS  23116.49593095 -.00025068  00000-0 -15609-2 0  9998,2 52576  53.2140 144.6429 0001976 133.9009 226.2147 15.08874862 53348,6917.774,95.435,541.006,538.272,0.0
52576.0,STARLINK-3932,PAYLOAD,2023-04-26 18:15:44,15.08821438,0.0001438,53.2139,143.455,116.904,243.2099,0.0002261,3.31e-05,0.0,0 STARLINK-3932,1 52576U 22051AS  23116.76092777  .00003310  00000-0  22610-3 0  9994,2 52576  53.2139 143.4550 0001438 116.9040 243.2099 15.08821438 53387,6917.937,95.439,540.797,538.807,0.0
52576.0,STARLINK-3932,PAYLOAD,2023-04-27 06:58:49,15.08825093,0.000133,53.2155,141.0757,105.6132,254.5007,0.00030921,4.635e-05,0.0,0 STARLINK-3932,1 52576U 22051AS  23117.29084916  .00004635  00000-0  30921-3 0  9994,2 52576  53.2155 141.0757 0001330 105.6132 254.5007 15.08825093 53460,6917.926,95.438,540.711,538.871,0.0
52576.0,STARLINK-3932,PAYLOAD,2023-04-27 13:20:21,15.08835705,0.0001332,53.2149,139.8864,99.8305,260.2838,0.00035949,5.437e-05,0.0,0 STARLINK-3932,1 52576U 22051AS  23117.55580962  .00005437  00000-0  35949-3 0  9991,2 52576  53.2149 139.8864 0001332  99.8305 260.2838 15.08835705 53574,6917.894,95.438,540.68,538.837,0.0
